ONEWEB-0220             
1 48232U 21031Y   23242.67118309  .00000050  00000+0  10052-3 0  9999
2 48232  87.9030 133.0585 0002038  65.6216 294.5126 13.14504640114207
ONEWEB-0165             
1 48233U 21031Z   23243.00527281  .00000395  00000+0  10297-2 0  9993
2 48233  87.9032 133.0050 0002244  77.6917 282.4464 13.14500322114201
ONEWEB-0199             
1 48234U 21031AA  23242.98834210  .00000277  00000+0  71254-3 0  9993
2 48234  87.9025 132.9808 0002032  72.8491 287.2861 13.14504869114105
ONEWEB-0203             
1 48235U 21031AB  23242.97776845 -.00000005  00000+0 -47357-4 0  9991
2 48235  87.9025 132.9815 0002030  86.5581 273.5781 13.14500356114111
ONEWEB-0197             
1 48236U 21031AC  23243.04107406  .00002421  00000+0  64959-2 0  9999
2 48236  87.9024 132.9778 0001774  74.2960 285.8365 13.14492202114033
ONEWEB-0194             
1 48237U 21031AD  23242.93337843  .00000145  00000+0  35730-3 0  9994
2 48237  87.9027 132.9884 0001878  89.4080 270.7265 13.14501527114191
ONEWEB-0193             
1 48238U 21031AE  23243.10251026 -.00000355  00000+0 -99245-3 0  9999
2 48238  87.9027 132.9645 0001994  76.7428 283.3924 13.14501431114164
ONEWEB-0191             
1 48239U 21031AF  23242.96084642  .00000306  00000+0  79134-3 0  9990
2 48239  87.9021 132.9719 0001943  80.2803 279.8546 13.14498111114005
